RASSVET-3 5             
1 68364U 26061E   26099.85030509  .00081779  12040-5  26865-3 0  9992
2 68364  82.2975  89.3027 0024582  10.5747 349.6036 15.89854691  2724
RASSVET-3 6             
1 68365U 26061F   26099.78634714  .00073953  78298-6  24054-3 0  9994
2 68365  82.2974  89.3726 0024248  11.0269 349.1528 15.90054901  2712
RASSVET-3 7             
1 68366U 26061G   26099.84997348  .00086718  14961-5  28441-3 0  9990
2 68366  82.2974  89.3025 0024324  10.5765 349.6013 15.89902727  2726
RASSVET-3 8             
1 68367U 26061H   26099.85012409  .00079487  10755-5  26099-3 0  9997
2 68367  82.2975  89.3025 0024415  10.4422 349.7351 15.89869251  2728
RASSVET-3 9             
1 68368U 26061J   26099.84631666  .00128437  46886-5  41221-3 0  9997
2 68368  82.2957  89.2949 0023668  12.3149 347.8696 15.90381789  2727
RASSVET-3 10            
1 68369U 26061K   26099.84961729  .00066419  41234-6  21763-3 0  9997
2 68369  82.2975  89.3019 0024247  10.5136 349.6637 15.89899765  2728
RASSVET-3 11            
1 68370U 26061L   26099.84917401  .00062554  23974-6  20469-3 0  9996
2 68370  82.2975  89.3011 0024103  10.3216 349.8545 15.89926204  2729
RASSVET-3 12            
1 68371U 26061M   26099.84860067  .00112347  32998-5  36485-3 0  9998
2 68371  82.2974  89.3003 0023785  10.3000 349.8754 15.90137625  2721
RASSVET-3 13            
1 68372U 26061N   26099.84833483  .00112851  33450-5  36487-3 0  9997
2 68372  82.2972  89.2997 0023440  10.2586 349.9159 15.90239252  2726
RASSVET-3 14            
1 68373U 26061P   26099.84757857  .00113571  34073-5  36554-3 0  9995
2 68373  82.2974  89.2988 0023412  10.0312 350.1422 15.90329167  2725
RASSVET-3 15            
1 68374U 26061Q   26099.84710000  .00115191  35485-5  36756-3 0  9997
2 68374  82.2969  89.2980 0022985  10.1328 350.0402 15.90516794  2725
RASSVET-3 16            
1 68375U 26061R   26099.66054885  .00076872  00000+0  32971-3 0  9996
2 68375  82.2968  89.5195 0018856  24.8633 335.3540 15.84554283  2692
SUPERVIEW NEO-2 OBJECT A
1 68377U 26062A   26099.87079399  .00002788  00000+0  13363-3 0  9998
2 68377  97.4377 108.1510 0003974 193.9097 166.2029 15.19741249  2277
SUPERVIEW NEO-2 OBJECT B
1 68378U 26062B   26099.87049507  .00002817  00000+0  13496-3 0  9997
2 68378  97.4363 108.1482 0006192 207.6257 152.4649 15.19738235  2273
STARLINK-36296          
1 68380U 26063A   26099.79976164 -.02734393  20650-2 -72187-2 0  9992
2 68380  97.2905 241.2025 0003186 245.6236 114.4707 15.94908508  2545
