[{"OBJECT_NAME":"RASSVET-3 5","OBJECT_ID":"2026-061E","EPOCH":"2026-04-09T20:24:26.359776","MEAN_MOTION":15.89854691,"ECCENTRICITY":0.0024582,"INCLINATION":82.2975,"RA_OF_ASC_NODE":89.3027,"ARG_OF_PERICENTER":10.5747,"MEAN_ANOMALY":349.6036,"EPHEMERIS_TYPE":0,"CLASSIFICATION_TYPE":"U","NORAD_CAT_ID":68364,"ELEMENT_SET_NO":999,"REV_AT_EPOCH":272,"BSTAR":0.00026865,"MEAN_MOTION_DOT":0.00081779,"MEAN_MOTION_DDOT":1.204e-6},{"OBJECT_NAME":"RASSVET-3 6","OBJECT_ID":"2026-061F","EPOCH":"2026-04-09T18:52:20.392896","MEAN_MOTION":15.90054901,"ECCENTRICITY":0.0024248,"INCLINATION":82.2974,"RA_OF_ASC_NODE":89.3726,"ARG_OF_PERICENTER":11.0269,"MEAN_ANOMALY":349.1528,"EPHEMERIS_TYPE":0,"CLASSIFICATION_TYPE":"U","NORAD_CAT_ID":68365,"ELEMENT_SET_NO":999,"REV_AT_EPOCH":271,"BSTAR":0.00024054,"MEAN_MOTION_DOT":0.00073953,"MEAN_MOTION_DDOT":7.8298e-7},{"OBJECT_NAME":"RASSVET-3 7","OBJECT_ID":"2026-061G","EPOCH":"2026-04-09T20:23:57.708672","MEAN_MOTION":15.89902727,"ECCENTRICITY":0.0024324,"INCLINATION":82.2974,"RA_OF_ASC_NODE":89.3025,"ARG_OF_PERICENTER":10.5765,"MEAN_ANOMALY":349.6013,"EPHEMERIS_TYPE":0,"CLASSIFICATION_TYPE":"U","NORAD_CAT_ID":68366,"ELEMENT_SET_NO":999,"REV_AT_EPOCH":272,"BSTAR":0.00028441,"MEAN_MOTION_DOT":0.00086718,"MEAN_MOTION_DDOT":1.4961e-6},{"OBJECT_NAME":"RASSVET-3 8","OBJECT_ID":"2026-061H","EPOCH":"2026-04-09T20:24:10.721376","MEAN_MOTION":15.89869251,"ECCENTRICITY":0.0024415,"INCLINATION":82.2975,"RA_OF_ASC_NODE":89.3025,"ARG_OF_PERICENTER":10.4422,"MEAN_ANOMALY":349.7351,"EPHEMERIS_TYPE":0,"CLASSIFICATION_TYPE":"U","NORAD_CAT_ID":68367,"ELEMENT_SET_NO":999,"REV_AT_EPOCH":272,"BSTAR":0.00026099,"MEAN_MOTION_DOT":0.00079487,"MEAN_MOTION_DDOT":1.0755e-6},{"OBJECT_NAME":"RASSVET-3 9","OBJECT_ID":"2026-061J","EPOCH":"2026-04-09T20:18:41.759424","MEAN_MOTION":15.90381789,"ECCENTRICITY":0.0023668,"INCLINATION":82.2957,"RA_OF_ASC_NODE":89.2949,"ARG_OF_PERICENTER":12.3149,"MEAN_ANOMALY":347.8696,"EPHEMERIS_TYPE":0,"CLASSIFICATION_TYPE":"U","NORAD_CAT_ID":68368,"ELEMENT_SET_NO":999,"REV_AT_EPOCH":272,"BSTAR":0.00041221,"MEAN_MOTION_DOT":0.00128437,"MEAN_MOTION_DDOT":4.6886e-6},{"OBJECT_NAME":"RASSVET-3 10","OBJECT_ID":"2026-061K","EPOCH":"2026-04-09T20:23:26.933856","MEAN_MOTION":15.89899765,"ECCENTRICITY":0.0024247,"INCLINATION":82.2975,"RA_OF_ASC_NODE":89.3019,"ARG_OF_PERICENTER":10.5136,"MEAN_ANOMALY":349.6637,"EPHEMERIS_TYPE":0,"CLASSIFICATION_TYPE":"U","NORAD_CAT_ID":68369,"ELEMENT_SET_NO":999,"REV_AT_EPOCH":272,"BSTAR":0.00021763,"MEAN_MOTION_DOT":0.00066419,"MEAN_MOTION_DDOT":4.1234e-7},{"OBJECT_NAME":"RASSVET-3 11","OBJECT_ID":"2026-061L","EPOCH":"2026-04-09T20:22:48.634464","MEAN_MOTION":15.89926204,"ECCENTRICITY":0.0024103,"INCLINATION":82.2975,"RA_OF_ASC_NODE":89.3011,"ARG_OF_PERICENTER":10.3216,"MEAN_ANOMALY":349.8545,"EPHEMERIS_TYPE":0,"CLASSIFICATION_TYPE":"U","NORAD_CAT_ID":68370,"ELEMENT_SET_NO":999,"REV_AT_EPOCH":272,"BSTAR":0.00020469,"MEAN_MOTION_DOT":0.00062554,"MEAN_MOTION_DDOT":2.3974e-7},{"OBJECT_NAME":"RASSVET-3 12","OBJECT_ID":"2026-061M","EPOCH":"2026-04-09T20:21:59.097888","MEAN_MOTION":15.90137625,"ECCENTRICITY":0.0023785,"INCLINATION":82.2974,"RA_OF_ASC_NODE":89.3003,"ARG_OF_PERICENTER":10.3,"MEAN_ANOMALY":349.8754,"EPHEMERIS_TYPE":0,"CLASSIFICATION_TYPE":"U","NORAD_CAT_ID":68371,"ELEMENT_SET_NO":999,"REV_AT_EPOCH":272,"BSTAR":0.00036485,"MEAN_MOTION_DOT":0.00112347,"MEAN_MOTION_DDOT":3.2998e-6},{"OBJECT_NAME":"RASSVET-3 13","OBJECT_ID":"2026-061N","EPOCH":"2026-04-09T20:21:36.129312","MEAN_MOTION":15.90239252,"ECCENTRICITY":0.002344,"INCLINATION":82.2972,"RA_OF_ASC_NODE":89.2997,"ARG_OF_PERICENTER":10.2586,"MEAN_ANOMALY":349.9159,"EPHEMERIS_TYPE":0,"CLASSIFICATION_TYPE":"U","NORAD_CAT_ID":68372,"ELEMENT_SET_NO":999,"REV_AT_EPOCH":272,"BSTAR":0.00036487,"MEAN_MOTION_DOT":0.00112851,"MEAN_MOTION_DDOT":3.345e-6},{"OBJECT_NAME":"RASSVET-3 14","OBJECT_ID":"2026-061P","EPOCH":"2026-04-09T20:20:30.788448","MEAN_MOTION":15.90329167,"ECCENTRICITY":0.0023412,"INCLINATION":82.2974,"RA_OF_ASC_NODE":89.2988,"ARG_OF_PERICENTER":10.0312,"MEAN_ANOMALY":350.1422,"EPHEMERIS_TYPE":0,"CLASSIFICATION_TYPE":"U","NORAD_CAT_ID":68373,"ELEMENT_SET_NO":999,"REV_AT_EPOCH":272,"BSTAR":0.00036554,"MEAN_MOTION_DOT":0.00113571,"MEAN_MOTION_DDOT":3.4073e-6},{"OBJECT_NAME":"RASSVET-3 15","OBJECT_ID":"2026-061Q","EPOCH":"2026-04-09T20:19:49.440000","MEAN_MOTION":15.90516794,"ECCENTRICITY":0.0022985,"INCLINATION":82.2969,"RA_OF_ASC_NODE":89.298,"ARG_OF_PERICENTER":10.1328,"MEAN_ANOMALY":350.0402,"EPHEMERIS_TYPE":0,"CLASSIFICATION_TYPE":"U","NORAD_CAT_ID":68374,"ELEMENT_SET_NO":999,"REV_AT_EPOCH":272,"BSTAR":0.00036756,"MEAN_MOTION_DOT":0.00115191,"MEAN_MOTION_DDOT":3.5485e-6},{"OBJECT_NAME":"RASSVET-3 16","OBJECT_ID":"2026-061R","EPOCH":"2026-04-09T15:51:11.420640","MEAN_MOTION":15.84554283,"ECCENTRICITY":0.0018856,"INCLINATION":82.2968,"RA_OF_ASC_NODE":89.5195,"ARG_OF_PERICENTER":24.8633,"MEAN_ANOMALY":335.354,"EPHEMERIS_TYPE":0,"CLASSIFICATION_TYPE":"U","NORAD_CAT_ID":68375,"ELEMENT_SET_NO":999,"REV_AT_EPOCH":269,"BSTAR":0.00032971,"MEAN_MOTION_DOT":0.00076872,"MEAN_MOTION_DDOT":0},{"OBJECT_NAME":"SUPERVIEW NEO-2 OBJECT A","OBJECT_ID":"2026-062A","EPOCH":"2026-04-09T20:53:56.600736","MEAN_MOTION":15.19741249,"ECCENTRICITY":0.0003974,"INCLINATION":97.4377,"RA_OF_ASC_NODE":108.151,"ARG_OF_PERICENTER":193.9097,"MEAN_ANOMALY":166.2029,"EPHEMERIS_TYPE":0,"CLASSIFICATION_TYPE":"U","NORAD_CAT_ID":68377,"ELEMENT_SET_NO":999,"REV_AT_EPOCH":227,"BSTAR":0.00013363,"MEAN_MOTION_DOT":2.788e-5,"MEAN_MOTION_DDOT":0},{"OBJECT_NAME":"SUPERVIEW NEO-2 OBJECT B","OBJECT_ID":"2026-062B","EPOCH":"2026-04-09T20:53:30.774048","MEAN_MOTION":15.19738235,"ECCENTRICITY":0.0006192,"INCLINATION":97.4363,"RA_OF_ASC_NODE":108.1482,"ARG_OF_PERICENTER":207.6257,"MEAN_ANOMALY":152.4649,"EPHEMERIS_TYPE":0,"CLASSIFICATION_TYPE":"U","NORAD_CAT_ID":68378,"ELEMENT_SET_NO":999,"REV_AT_EPOCH":227,"BSTAR":0.00013496,"MEAN_MOTION_DOT":2.817e-5,"MEAN_MOTION_DDOT":0},{"OBJECT_NAME":"STARLINK-36296","OBJECT_ID":"2026-063A","EPOCH":"2026-04-09T19:11:39.405696","MEAN_MOTION":15.94908508,"ECCENTRICITY":0.0003186,"INCLINATION":97.2905,"RA_OF_ASC_NODE":241.2025,"ARG_OF_PERICENTER":245.6236,"MEAN_ANOMALY":114.4707,"EPHEMERIS_TYPE":0,"CLASSIFICATION_TYPE":"U","NORAD_CAT_ID":68380,"ELEMENT_SET_NO":999,"REV_AT_EPOCH":254,"BSTAR":-0.0072187,"MEAN_MOTION_DOT":-0.02734393,"MEAN_MOTION_DDOT":0.002065}]
